[{"OBJECT_NAME":"NEXTSAT-1","OBJECT_ID":"2018-099BF","EPOCH":"2026-03-09T16:24:07.497504","MEAN_MOTION":15.08057555,"ECCENTRICITY":0.001132,"INCLINATION":97.4203,"RA_OF_ASC_NODE":114.8574,"ARG_OF_PERICENTER":323.961,"MEAN_ANOMALY":36.0854,"EPHEMERIS_TYPE":0,"CLASSIFICATION_TYPE":"U","NORAD_CAT_ID":43811,"ELEMENT_SET_NO":999,"REV_AT_EPOCH":39688,"BSTAR":0.00029857014,"MEAN_MOTION_DOT":4.546e-5,"MEAN_MOTION_DDOT":0},{"OBJECT_NAME":"STARLINK-35373","OBJECT_ID":"2025-218B","EPOCH":"2026-03-09T13:52:45.133824","MEAN_MOTION":15.05649987,"ECCENTRICITY":0.0001465,"INCLINATION":97.6024,"RA_OF_ASC_NODE":292.8543,"ARG_OF_PERICENTER":87.2686,"MEAN_ANOMALY":272.8709,"EPHEMERIS_TYPE":0,"CLASSIFICATION_TYPE":"U","NORAD_CAT_ID":65792,"ELEMENT_SET_NO":999,"REV_AT_EPOCH":2495,"BSTAR":0.00037681,"MEAN_MOTION_DOT":5.38e-5,"MEAN_MOTION_DDOT":0}]
