NEXTSAT-1               
1 43811U 18099BF  26068.68342010  .00004546  00000+0  29857-3 0  9992
2 43811  97.4203 114.8574 0011320 323.9610  36.0854 15.08057555396886
STARLINK-35373          
1 65792U 25218B   26068.57830016  .00005380  00000+0  37681-3 0  9992
2 65792  97.6024 292.8543 0001465  87.2686 272.8709 15.05649987 24954
